{"type": "FeatureCollection", "features": [ {"type": "Feature", "properties": {"norad_id": 33980, "name": "COSMOS 2251 DEB", "group": "cosmos-2251-debris", "lat": -56.67409588798028, "lon": -97.77217972211722, "alt_km": 688.4230808691254, "timestamp": "2025-12-14T07:33:19.872215+00:00", "meta": {"OBJECT_NAME": "COSMOS 2251 DEB", "OBJECT_ID": "1993-036FP", "EPOCH": "2025-12-13T16:12:25.880256", "MEAN_MOTION": 14.58660558, "ECCENTRICITY": 0.00286425, "INCLINATION": 74.0219, "RA_OF_ASC_NODE": 57.6126, "ARG_OF_PERICENTER": 202.723, "MEAN_ANOMALY": 280.5429, "EPHEMERIS_TYPE": 0, "CLASSIFICATION_TYPE": "U", "NORAD_CAT_ID": 33980, "ELEMENT_SET_NO": 999, "REV_AT_EPOCH": 88808, "BSTAR": 0.00083109141, "MEAN_MOTION_DOT": 3.868e-05, "MEAN_MOTION_DDOT": 0}, "tle": {"line1": "1 33980U 93036FP  25347.67529954  .00003868  00000+0  83109-3 0  9990", "line2": "2 33980  74.0219  57.6126 0028642 202.7230 280.5429 14.58660558888083"}}, "geometry": {"type": "Point", "coordinates": [-97.77217972211722, -56.67409588798028]}}, {"type": "Feature", "properties": {"norad_id": 33982, "name": "COSMOS 2251 DEB", "group": "cosmos-2251-debris", "lat": 68.65761909314115, "lon": 129.97326067245484, "alt_km": 661.3209907291393, "timestamp": "2025-12-14T07:33:19.872225+00:00", "meta": {"OBJECT_NAME": "COSMOS 2251 DEB", "OBJECT_ID": "1993-036FR", "EPOCH": "2025-12-13T12:02:36.835008", "MEAN_MOTION": 14.60216982, "ECCENTRICITY": 0.00750844, "INCLINATION": 74.071, "RA_OF_ASC_NODE": 358.4842, "ARG_OF_PERICENTER": 42.7419, "MEAN_ANOMALY": 108.8477, "EPHEMERIS_TYPE": 0, "CLASSIFICATION_TYPE": "U", "NORAD_CAT_ID": 33982, "ELEMENT_SET_NO": 999, "REV_AT_EPOCH": 89170, "BSTAR": 0.00064134491, "MEAN_MOTION_DOT": 3.188e-05, "MEAN_MOTION_DDOT": 0}, "tle": {"line1": "1 33982U 93036FR  25347.50181522  .00003188  00000+0  64134-3 0  9991", "line2": "2 33982  74.0710 358.4842 0075084  42.7419 108.8477 14.60216982891700"}}, "geometry": {"type": "Point", "coordinates": [129.97326067245484, 68.65761909314115]}}, {"type": "Feature", "properties": {"norad_id": 33983, "name": "COSMOS 2251 DEB", "group": "cosmos-2251-debris", "lat": -17.68404618772455, "lon": 138.85594028811914, "alt_km": 729.2879272128075, "timestamp": "2025-12-14T07:33:19.872235+00:00", "meta": {"OBJECT_NAME": "COSMOS 2251 DEB", "OBJECT_ID": "1993-036FS", "EPOCH": "2025-12-13T13:45:20.968704", "MEAN_MOTION": 14.50675968, "ECCENTRICITY": 0.00213455, "INCLINATION": 74.0494, "RA_OF_ASC_NODE": 145.4803, "ARG_OF_PERICENTER": 248.4465, "MEAN_ANOMALY": 181.3415, "EPHEMERIS_TYPE": 0, "CLASSIFICATION_TYPE": "U", "NORAD_CAT_ID": 33983, "ELEMENT_SET_NO": 999, "REV_AT_EPOCH": 88641, "BSTAR": 0.00074428583, "MEAN_MOTION_DOT": 2.905e-05, "MEAN_MOTION_DDOT": 0}, "tle": {"line1": "1 33983U 93036FS  25347.57315936  .00002905  00000+0  74429-3 0  9991", "line2": "2 33983  74.0494 145.4803 0021345 248.4465 181.3415 14.50675968886410"}}, "geometry": {"type": "Point", "coordinates": [138.85594028811914, -17.68404618772455]}}, {"type": "Feature", "properties": {"norad_id": 33984, "name": "COSMOS 2251 DEB", "group": "cosmos-2251-debris", "lat": 3.529585281449665, "lon": 163.0478306526939, "alt_km": 658.5992059370419, "timestamp": "2025-12-14T07:33:19.872246+00:00", "meta": {"OBJECT_NAME": "COSMOS 2251 DEB", "OBJECT_ID": "1993-036FT", "EPOCH": "2025-12-13T11:52:28.949664", "MEAN_MOTION": 14.66377016, "ECCENTRICITY": 0.00230772, "INCLINATION": 74.0098, "RA_OF_ASC_NODE": 345.6439, "ARG_OF_PERICENTER": 183.6623, "MEAN_ANOMALY": 345.4209, "EPHEMERIS_TYPE": 0, "CLASSIFICATION_TYPE": "U", "NORAD_CAT_ID": 33984, "ELEMENT_SET_NO": 999, "REV_AT_EPOCH": 89077, "BSTAR": 0.0013464303, "MEAN_MOTION_DOT": 7.447e-05, "MEAN_MOTION_DDOT": 0}, "tle": {"line1": "1 33984U 93036FT  25347.49477951  .00007447  00000+0  13464-2 0  9996", "line2": "2 33984  74.0098 345.6439 0023077 183.6623 345.4209 14.66377016890778"}}, "geometry": {"type": "Point", "coordinates": [163.0478306526939, 3.529585281449665]}}, {"type": "Feature", "properties": {"norad_id": 33986, "name": "COSMOS 2251 DEB", "group": "cosmos-2251-debris", "lat": 49.603231686264415, "lon": -40.59625495295159, "alt_km": 721.0230775422633, "timestamp": "2025-12-14T07:33:19.872256+00:00", "meta": {"OBJECT_NAME": "COSMOS 2251 DEB", "OBJECT_ID": "1993-036FV", "EPOCH": "2025-12-13T03:06:27.122112", "MEAN_MOTION": 14.43208756, "ECCENTRICITY": 0.004046, "INCLINATION": 74.0367, "RA_OF_ASC_NODE": 301.9487, "ARG_OF_PERICENTER": 14.506, "MEAN_ANOMALY": 1.6618, "EPHEMERIS_TYPE": 0, "CLASSIFICATION_TYPE": "U", "NORAD_CAT_ID": 33986, "ELEMENT_SET_NO": 999, "REV_AT_EPOCH": 88034, "BSTAR": 0.0012262721, "MEAN_MOTION_DOT": 4.14e-05, "MEAN_MOTION_DDOT": 0}, "tle": {"line1": "1 33986U 93036FV  25347.12948058  .00004140  00000+0  12263-2 0  9992", "line2": "2 33986  74.0367 301.9487 0040460  14.5060   1.6618 14.43208756880345"}}, "geometry": {"type": "Point", "coordinates": [-40.59625495295159, 49.603231686264415]}}, {"type": "Feature", "properties": {"norad_id": 33990, "name": "COSMOS 2251 DEB", "group": "cosmos-2251-debris", "lat": -61.06515686062287, "lon": -107.9627700189604, "alt_km": 778.8873902384194, "timestamp": "2025-12-14T07:33:19.872267+00:00", "meta": {"OBJECT_NAME": "COSMOS 2251 DEB", "OBJECT_ID": "1993-036FZ", "EPOCH": "2025-12-13T15:00:05.032800", "MEAN_MOTION": 13.49995056, "ECCENTRICITY": 0.04075308, "INCLINATION": 73.9287, "RA_OF_ASC_NODE": 284.573, "ARG_OF_PERICENTER": 304.7208, "MEAN_ANOMALY": 239.4607, "EPHEMERIS_TYPE": 0, "CLASSIFICATION_TYPE": "U", "NORAD_CAT_ID": 33990, "ELEMENT_SET_NO": 999, "REV_AT_EPOCH": 82741, "BSTAR": 0.0017024617, "MEAN_MOTION_DOT": 1.79e-05, "MEAN_MOTION_DDOT": 0}, "tle": {"line1": "1 33990U 93036FZ  25347.62505825  .00001790  00000+0  17025-2 0  9992", "line2": "2 33990  73.9287 284.5730 0407530 304.7208 239.4607 13.49995056827418"}}, "geometry": {"type": "Point", "coordinates": [-107.9627700189604, -61.06515686062287]}}, {"type": "Feature", "properties": {"norad_id": 33992, "name": "COSMOS 2251 DEB", "group": "cosmos-2251-debris", "lat": 35.61121462488516, "lon": -13.460201678486913, "alt_km": 649.185486284171, "timestamp": "2025-12-14T07:33:19.872277+00:00", "meta": {"OBJECT_NAME": "COSMOS 2251 DEB", "OBJECT_ID": "1993-036GB", "EPOCH": "2025-12-13T10:47:59.237088", "MEAN_MOTION": 14.6622588, "ECCENTRICITY": 0.00516241, "INCLINATION": 74.0243, "RA_OF_ASC_NODE": 336.3669, "ARG_OF_PERICENTER": 93.9714, "MEAN_ANOMALY": 60.8554, "EPHEMERIS_TYPE": 0, "CLASSIFICATION_TYPE": "U", "NORAD_CAT_ID": 33992, "ELEMENT_SET_NO": 999, "REV_AT_EPOCH": 89135, "BSTAR": 0.0012754018, "MEAN_MOTION_DOT": 7.141e-05, "MEAN_MOTION_DDOT": 0}, "tle": {"line1": "1 33992U 93036GB  25347.44999117  .00007141  00000+0  12754-2 0  9995", "line2": "2 33992  74.0243 336.3669 0051624  93.9714  60.8554 14.66225880891351"}}, "geometry": {"type": "Point", "coordinates": [-13.460201678486913, 35.61121462488516]}}, {"type": "Feature", "properties": {"norad_id": 33994, "name": "COSMOS 2251 DEB", "group": "cosmos-2251-debris", "lat": 10.781777613710492, "lon": 4.371683427877752, "alt_km": 770.6176301463747, "timestamp": "2025-12-14T07:33:19.872287+00:00", "meta": {"OBJECT_NAME": "COSMOS 2251 DEB", "OBJECT_ID": "1993-036GD", "EPOCH": "2025-12-13T16:04:16.973760", "MEAN_MOTION": 14.41215313, "ECCENTRICITY": 0.00236877, "INCLINATION": 74.0416, "RA_OF_ASC_NODE": 188.6889, "ARG_OF_PERICENTER": 322.8375, "MEAN_ANOMALY": 99.9117, "EPHEMERIS_TYPE": 0, "CLASSIFICATION_TYPE": "U", "NORAD_CAT_ID": 33994, "ELEMENT_SET_NO": 999, "REV_AT_EPOCH": 88433, "BSTAR": 0.00012371738, "MEAN_MOTION_DOT": 3.74e-06, "MEAN_MOTION_DDOT": 0}, "tle": {"line1": "1 33994U 93036GD  25347.66964090  .00000374  00000+0  12372-3 0  9991", "line2": "2 33994  74.0416 188.6889 0023687 322.8375  99.9117 14.41215313884333"}}, "geometry": {"type": "Point", "coordinates": [4.371683427877752, 10.781777613710492]}}, {"type": "Feature", "properties": {"norad_id": 33995, "name": "COSMOS 2251 DEB", "group": "cosmos-2251-debris", "lat": -27.910648720291263, "lon": -54.82264940424296, "alt_km": 772.4443600139957, "timestamp": "2025-12-14T07:33:19.872298+00:00", "meta": {"OBJECT_NAME": "COSMOS 2251 DEB", "OBJECT_ID": "1993-036GE", "EPOCH": "2025-12-13T12:10:57.235296", "MEAN_MOTION": 14.34781182, "ECCENTRICITY": 0.00600814, "INCLINATION": 74.0607, "RA_OF_ASC_NODE": 117.9465, "ARG_OF_PERICENTER": 132.1334, "MEAN_ANOMALY": 228.4947, "EPHEMERIS_TYPE": 0, "CLASSIFICATION_TYPE": "U", "NORAD_CAT_ID": 33995, "ELEMENT_SET_NO": 999, "REV_AT_EPOCH": 87530, "BSTAR": 0.0015107711, "MEAN_MOTION_DOT": 4.349e-05, "MEAN_MOTION_DDOT": 0}, "tle": {"line1": "1 33995U 93036GE  25347.50760689  .00004349  00000+0  15108-2 0  9998", "line2": "2 33995  74.0607 117.9465 0060081 132.1334 228.4947 14.34781182875308"}}, "geometry": {"type": "Point", "coordinates": [-54.82264940424296, -27.910648720291263]}}, {"type": "Feature", "properties": {"norad_id": 33999, "name": "COSMOS 2251 DEB", "group": "cosmos-2251-debris", "lat": -70.17245228708944, "lon": 174.50059847542815, "alt_km": 654.543915395866, "timestamp": "2025-12-14T07:33:19.872308+00:00", "meta": {"OBJECT_NAME": "COSMOS 2251 DEB", "OBJECT_ID": "1993-036GJ", "EPOCH": "2025-12-13T02:46:33.848256", "MEAN_MOTION": 14.83380151, "ECCENTRICITY": 0.00445443, "INCLINATION": 73.9188, "RA_OF_ASC_NODE": 230.0272, "ARG_OF_PERICENTER": 125.4301, "MEAN_ANOMALY": 235.1049, "EPHEMERIS_TYPE": 0, "CLASSIFICATION_TYPE": "U", "NORAD_CAT_ID": 33999, "ELEMENT_SET_NO": 999, "REV_AT_EPOCH": 89256, "BSTAR": 0.0019601302, "MEAN_MOTION_DOT": 0.00016365, "MEAN_MOTION_DDOT": 0}, "tle": {"line1": "1 33999U 93036GJ  25347.11566954  .00016365  00000+0  19601-2 0  9991", "line2": "2 33999  73.9188 230.0272 0044544 125.4301 235.1049 14.83380151892562"}}, "geometry": {"type": "Point", "coordinates": [174.50059847542815, -70.17245228708944]}}]}